start=new Date('2021-11-19T00:00:00.000Z').valueOf();
sats=[{"REV_AT_EPOCH":"7194","APOAPSIS":"548.307","DECAY_DATE":null,"NORAD_CAT_ID":"46033","GP_ID":"190037543","EPOCH":"2021-11-18T18:41:45.611232","COUNTRY_CODE":"US","MEAN_MOTION_DOT":"0.00000262","OBJECT_TYPE":"PAYLOAD","FILE":"3218669","TIME_SYSTEM":"UTC","SITE":"AFETR","RCS_SIZE":"LARGE","TLE_LINE2":"2 46033  53.0548 343.2022 0001600  72.8448 287.2716 15.06404693 71941","CLASSIFICATION_TYPE":"U","PERIAPSIS":"546.091","MEAN_ANOMALY":"287.2716","MEAN_ELEMENT_THEORY":"SGP4","ELEMENT_SET_NO":"999","OBJECT_ID":"2020-055G","INCLINATION":"53.0548","SEMIMAJOR_AXIS":"6925.334","PERIOD":"95.592","TLE_LINE1":"1 46033U 20055G   21322.77900013  .00000262  00000-0  36478-4 0  9997","REF_FRAME":"TEME","MEAN_MOTION":"15.06404693","RA_OF_ASC_NODE":"343.2022","ARG_OF_PERICENTER":"72.8448","LAUNCH_DATE":"2020-08-07","EPHEMERIS_TYPE":"0","MEAN_MOTION_DDOT":"0.0000000000000","CENTER_NAME":"EARTH","BSTAR":"0.00003647800000","ECCENTRICITY":"0.00016000","OBJECT_NAME":"STARLINK-1556"},{"BSTAR":"-0.00000781910000","ECCENTRICITY":"0.00014520","OBJECT_NAME":"STARLINK-1557","MEAN_MOTION_DDOT":"0.0000000000000","CENTER_NAME":"EARTH","LAUNCH_DATE":"2020-08-07","EPHEMERIS_TYPE":"0","ARG_OF_PERICENTER":"72.2507","MEAN_MOTION":"15.06386504","RA_OF_ASC_NODE":"343.1947","SEMIMAJOR_AXIS":"6925.390","TLE_LINE1":"1 46034U 20055H   21322.78269933 -.00000398  00000-0 -78191-5 0  9999","PERIOD":"95.593","REF_FRAME":"TEME","OBJECT_ID":"2020-055H","INCLINATION":"53.0557","ELEMENT_SET_NO":"999","MEAN_ELEMENT_THEORY":"SGP4","PERIAPSIS":"546.249","MEAN_ANOMALY":"287.8640","CLASSIFICATION_TYPE":"U","RCS_SIZE":"LARGE","TLE_LINE2":"2 46034  53.0557 343.1947 0001452  72.2507 287.8640 15.06386504 71944","SITE":"AFETR","TIME_SYSTEM":"UTC","OBJECT_TYPE":"PAYLOAD","FILE":"3218669","MEAN_MOTION_DOT":"-0.00000398","COUNTRY_CODE":"US","EPOCH":"2021-11-18T18:47:05.222112","NORAD_CAT_ID":"46034","GP_ID":"190037794","DECAY_DATE":null,"APOAPSIS":"548.260","REV_AT_EPOCH":"7194"},{"EPOCH":"2021-11-18T18:57:41.407776","NORAD_CAT_ID":"46035","GP_ID":"190036542","DECAY_DATE":null,"APOAPSIS":"548.433","REV_AT_EPOCH":"7197","SITE":"AFETR","TIME_SYSTEM":"UTC","OBJECT_TYPE":"PAYLOAD","FILE":"3218669","MEAN_MOTION_DOT":"0.00002764","COUNTRY_CODE":"US","MEAN_ELEMENT_THEORY":"SGP4","MEAN_ANOMALY":"301.9435","PERIAPSIS":"546.005","CLASSIFICATION_TYPE":"U","RCS_SIZE":"LARGE","TLE_LINE2":"2 46035  53.0539 343.1521 0001753  58.1725 301.9435 15.06398194 71973","BSTAR":"0.00020437000000","ECCENTRICITY":"0.00017530","OBJECT_NAME":"STARLINK-1558","MEAN_MOTION_DDOT":"0.0000000000000","CENTER_NAME":"EARTH","EPHEMERIS_TYPE":"0","LAUNCH_DATE":"2020-08-07","ARG_OF_PERICENTER":"58.1725","MEAN_MOTION":"15.06398194","RA_OF_ASC_NODE":"343.1521","SEMIMAJOR_AXIS":"6925.354","PERIOD":"95.592","TLE_LINE1":"1 46035U 20055J   21322.79006259  .00002764  00000-0  20437-3 0  9996","REF_FRAME":"TEME","OBJECT_ID":"2020-055J","INCLINATION":"53.0539","ELEMENT_SET_NO":"999"},{"MEAN_ELEMENT_THEORY":"SGP4","MEAN_ANOMALY":"284.6996","PERIAPSIS":"546.213","CLASSIFICATION_TYPE":"U","RCS_SIZE":"LARGE","TLE_LINE2":"2 46036  53.0545 343.2157 0001478  75.4157 284.6996 15.06392595 71970","MEAN_MOTION_DDOT":"0.0000000000000","CENTER_NAME":"EARTH","BSTAR":"0.00002127600000","ECCENTRICITY":"0.00014780","OBJECT_NAME":"STARLINK-1560","ARG_OF_PERICENTER":"75.4157","LAUNCH_DATE":"2020-08-07","EPHEMERIS_TYPE":"0","SEMIMAJOR_AXIS":"6925.371","TLE_LINE1":"1 46036U 20055K   21322.77532124  .00000035  00000-0  21276-4 0  9992","PERIOD":"95.593","REF_FRAME":"TEME","MEAN_MOTION":"15.06392595","RA_OF_ASC_NODE":"343.2157","ELEMENT_SET_NO":"999","OBJECT_ID":"2020-055K","INCLINATION":"53.0545","EPOCH":"2021-11-18T18:36:27.755136","APOAPSIS":"548.260","DECAY_DATE":null,"NORAD_CAT_ID":"46036","GP_ID":"190036792","REV_AT_EPOCH":"7197","TIME_SYSTEM":"UTC","SITE":"AFETR","OBJECT_TYPE":"PAYLOAD","FILE":"3218669","MEAN_MOTION_DOT":"0.00000035","COUNTRY_CODE":"US"},{"INCLINATION":"53.0551","OBJECT_ID":"2020-055L","ELEMENT_SET_NO":"999","MEAN_MOTION":"15.06388480","RA_OF_ASC_NODE":"343.2439","SEMIMAJOR_AXIS":"6925.384","TLE_LINE1":"1 46037U 20055L   21322.77163287 -.00002365  00000-0 -13999-3 0  9995","REF_FRAME":"TEME","PERIOD":"95.593","LAUNCH_DATE":"2020-08-07","EPHEMERIS_TYPE":"0","ARG_OF_PERICENTER":"63.5704","BSTAR":"-0.00013999000000","ECCENTRICITY":"0.00016990","OBJECT_NAME":"STARLINK-1565","MEAN_MOTION_DDOT":"0.0000000000000","CENTER_NAME":"EARTH","RCS_SIZE":"LARGE","TLE_LINE2":"2 46037  53.0551 343.2439 0001699  63.5704 296.5460 15.06388480 71967","CLASSIFICATION_TYPE":"U","PERIAPSIS":"546.072","MEAN_ANOMALY":"296.5460","MEAN_ELEMENT_THEORY":"SGP4","COUNTRY_CODE":"US","MEAN_MOTION_DOT":"-0.00002365","OBJECT_TYPE":"PAYLOAD","FILE":"3218669","SITE":"AFETR","TIME_SYSTEM":"UTC","REV_AT_EPOCH":"7196","NORAD_CAT_ID":"46037","GP_ID":"190038043","DECAY_DATE":null,"APOAPSIS":"548.425","EPOCH":"2021-11-18T18:31:09.079968"},{"COUNTRY_CODE":"US","MEAN_MOTION_DOT":"-0.00000708","OBJECT_TYPE":"PAYLOAD","FILE":"3218669","TIME_SYSTEM":"UTC","SITE":"AFETR","REV_AT_EPOCH":"7196","DECAY_DATE":null,"APOAPSIS":"548.508","NORAD_CAT_ID":"46038","GP_ID":"190038294","EPOCH":"2021-11-18T18:52:23.938752","ELEMENT_SET_NO":"999","INCLINATION":"53.0562","OBJECT_ID":"2020-055M","SEMIMAJOR_AXIS":"6925.377","PERIOD":"95.593","TLE_LINE1":"1 46038U 20055M   21322.78638818 -.00000708  00000-0 -28611-4 0  9991","REF_FRAME":"TEME","MEAN_MOTION":"15.06390573","RA_OF_ASC_NODE":"343.1790","ARG_OF_PERICENTER":"61.5204","EPHEMERIS_TYPE":"0","LAUNCH_DATE":"2020-08-07","MEAN_MOTION_DDOT":"0.0000000000000","CENTER_NAME":"EARTH","BSTAR":"-0.00002861100000","ECCENTRICITY":"0.00018270","OBJECT_NAME":"STARLINK-1567","RCS_SIZE":"LARGE","TLE_LINE2":"2 46038  53.0562 343.1790 0001827  61.5204 298.5968 15.06390573 71966","CLASSIFICATION_TYPE":"U","PERIAPSIS":"545.977","MEAN_ANOMALY":"298.5968","MEAN_ELEMENT_THEORY":"SGP4"},{"MEAN_MOTION_DOT":"0.00001959","COUNTRY_CODE":"US","TIME_SYSTEM":"UTC","SITE":"AFETR","FILE":"3218669","OBJECT_TYPE":"PAYLOAD","REV_AT_EPOCH":"7196","EPOCH":"2021-11-18T19:02:59.317440","DECAY_DATE":null,"APOAPSIS":"548.276","GP_ID":"190037042","NORAD_CAT_ID":"46039","REF_FRAME":"TEME","TLE_LINE1":"1 46039U 20055N   21322.79374210  .00001959  00000-0  15037-3 0  9990","PERIOD":"95.592","SEMIMAJOR_AXIS":"6925.343","MEAN_MOTION":"15.06401762","RA_OF_ASC_NODE":"343.1446","ELEMENT_SET_NO":"999","INCLINATION":"53.0556","OBJECT_ID":"2020-055N","CENTER_NAME":"EARTH","MEAN_MOTION_DDOT":"0.0000000000000","ECCENTRICITY":"0.00015420","OBJECT_NAME":"STARLINK-1569","BSTAR":"0.00015037000000","ARG_OF_PERICENTER":"66.8888","LAUNCH_DATE":"2020-08-07","EPHEMERIS_TYPE":"0","CLASSIFICATION_TYPE":"U","TLE_LINE2":"2 46039  53.0556 343.1446 0001542  66.8888 293.2263 15.06401762 71961","RCS_SIZE":"LARGE","MEAN_ELEMENT_THEORY":"SGP4","MEAN_ANOMALY":"293.2263","PERIAPSIS":"546.140"},{"SEMIMAJOR_AXIS":"6925.390","PERIOD":"95.593","TLE_LINE1":"1 46040U 20055P   21322.75689398 -.00000690  00000-0 -27420-4 0  9997","REF_FRAME":"TEME","MEAN_MOTION":"15.06386400","RA_OF_ASC_NODE":"343.3114","ELEMENT_SET_NO":"999","INCLINATION":"53.0562","OBJECT_ID":"2020-055P","MEAN_MOTION_DDOT":"0.0000000000000","CENTER_NAME":"EARTH","BSTAR":"-0.00002742000000","ECCENTRICITY":"0.00013660","OBJECT_NAME":"STARLINK-1576","ARG_OF_PERICENTER":"65.0267","LAUNCH_DATE":"2020-08-07","EPHEMERIS_TYPE":"0","CLASSIFICATION_TYPE":"U","RCS_SIZE":"LARGE","TLE_LINE2":"2 46040  53.0562 343.3114 0001366  65.0267 295.0863 15.06386400 71923","MEAN_ELEMENT_THEORY":"SGP4","MEAN_ANOMALY":"295.0863","PERIAPSIS":"546.309","MEAN_MOTION_DOT":"-0.00000690","COUNTRY_CODE":"US","TIME_SYSTEM":"UTC","SITE":"AFETR","OBJECT_TYPE":"PAYLOAD","FILE":"3218669","REV_AT_EPOCH":"7192","EPOCH":"2021-11-18T18:09:55.639872","DECAY_DATE":null,"APOAPSIS":"548.201","NORAD_CAT_ID":"46040","GP_ID":"190037292"},{"OBJECT_ID":"2020-055Q","INCLINATION":"53.0563","ELEMENT_SET_NO":"999","MEAN_MOTION":"15.06400718","RA_OF_ASC_NODE":"343.2989","REF_FRAME":"TEME","TLE_LINE1":"1 46041U 20055Q   21322.75962424 -.00000112  00000-0  11408-4 0  9999","PERIOD":"95.592","SEMIMAJOR_AXIS":"6925.346","LAUNCH_DATE":"2020-08-07","EPHEMERIS_TYPE":"0","ARG_OF_PERICENTER":"71.2112","ECCENTRICITY":"0.00015230","OBJECT_NAME":"STARLINK-1580","BSTAR":"0.00001140800000","CENTER_NAME":"EARTH","MEAN_MOTION_DDOT":"0.0000000000000","TLE_LINE2":"2 46041  53.0563 343.2989 0001523  71.2112 288.9042 15.06400718 71937","RCS_SIZE":"LARGE","CLASSIFICATION_TYPE":"U","MEAN_ANOMALY":"288.9042","PERIAPSIS":"546.157","MEAN_ELEMENT_THEORY":"SGP4","COUNTRY_CODE":"US","MEAN_MOTION_DOT":"-0.00000112","FILE":"3218669","OBJECT_TYPE":"PAYLOAD","SITE":"AFETR","TIME_SYSTEM":"UTC","REV_AT_EPOCH":"7193","GP_ID":"190037544","NORAD_CAT_ID":"46041","APOAPSIS":"548.266","DECAY_DATE":null,"EPOCH":"2021-11-18T18:13:51.534336"},{"MEAN_MOTION_DOT":"-0.00000416","COUNTRY_CODE":"US","SITE":"AFETR","TIME_SYSTEM":"UTC","FILE":"3218461","OBJECT_TYPE":"PAYLOAD","REV_AT_EPOCH":"7188","EPOCH":"2021-11-18T11:26:31.180992","GP_ID":"190009955","NORAD_CAT_ID":"46042","DECAY_DATE":null,"APOAPSIS":"548.273","MEAN_MOTION":"15.06400142","RA_OF_ASC_NODE":"344.5656","REF_FRAME":"TEME","TLE_LINE1":"1 46042U 20055R   21322.47674978 -.00000416  00000-0 -90355-5 0  9990","PERIOD":"95.592","SEMIMAJOR_AXIS":"6925.348","INCLINATION":"53.0562","OBJECT_ID":"2020-055R","ELEMENT_SET_NO":"999","ECCENTRICITY":"0.00015310","OBJECT_NAME":"STARLINK-1581","BSTAR":"-0.00000903550000","CENTER_NAME":"EARTH","MEAN_MOTION_DDOT":"0.0000000000000","LAUNCH_DATE":"2020-08-07","EPHEMERIS_TYPE":"0","ARG_OF_PERICENTER":"64.2481","CLASSIFICATION_TYPE":"U","TLE_LINE2":"2 46042  53.0562 344.5656 0001531  64.2481 295.8666 15.06400142 71886","RCS_SIZE":"LARGE","MEAN_ELEMENT_THEORY":"SGP4","MEAN_ANOMALY":"295.8666","PERIAPSIS":"546.153"}];
